[{"OBJECT_NAME":"STARLINK-30860","OBJECT_ID":"2023-171E","EPOCH":"2026-03-09T23:15:38.981952","MEAN_MOTION":15.26739072,"ECCENTRICITY":8.784e-5,"INCLINATION":42.9992,"RA_OF_ASC_NODE":283.106,"ARG_OF_PERICENTER":218.8643,"MEAN_ANOMALY":141.2145,"EPHEMERIS_TYPE":0,"CLASSIFICATION_TYPE":"U","NORAD_CAT_ID":58234,"ELEMENT_SET_NO":999,"REV_AT_EPOCH":12978,"BSTAR":6.833614e-6,"MEAN_MOTION_DOT":-7.6e-7,"MEAN_MOTION_DDOT":0},{"OBJECT_NAME":"HYPERFIELD-1A","OBJECT_ID":"2024-149CY","EPOCH":"2026-03-09T18:21:25.814304","MEAN_MOTION":15.29681349,"ECCENTRICITY":0.00038648,"INCLINATION":97.3842,"RA_OF_ASC_NODE":149.5066,"ARG_OF_PERICENTER":313.7844,"MEAN_ANOMALY":46.3076,"EPHEMERIS_TYPE":0,"CLASSIFICATION_TYPE":"U","NORAD_CAT_ID":60562,"ELEMENT_SET_NO":999,"REV_AT_EPOCH":8683,"BSTAR":0.00030052114,"MEAN_MOTION_DOT":8.569e-5,"MEAN_MOTION_DDOT":0}]
